0 COSMOS 2251 DEB
1 38205U 93036BSV 13283.65454815  .00010980  00000-0  14798-2 0  1300
2 38205 074.0148 032.0816 0193146 309.8039 046.4911 14.67068967213847
0 COSMOS 2251 DEB
1 38205U 93036BSV 13283.65496102  .00009886  00000-0  13281-2 0  1304
2 38205 074.0241 032.1002 0193116 309.5957 048.8783 14.67060122213840
0 COSMOS 2251 DEB
1 38205U 93036BSV 13284.01781488  .00017797  00000-0  23892-2 0  1319
2 38205 074.0153 031.3752 0193533 308.7894 165.3096 14.67085500213893
0 COSMOS 2251 DEB
1 38205U 93036BSV 13284.97362503  .00015253  00000-0  20465-2 0  1326
2 38205 074.0156 029.5280 0193727 306.6874 173.4990 14.67113258214033
0 COSMOS 2251 DEB
1 38205U 93036BSV 13286.95040630  .00015876  00000-0  21262-2 0  1338
2 38205 074.0162 025.7041 0193855 302.3931 174.2621 14.67165426214328
0 COSMOS 2251 DEB
1 38205U 93036BSV 13289.92808166  .00015724  00000-0  21099-2 0  1345
2 38205 074.0112 019.9416 0192312 295.9339 062.3215 14.67269278214764
0 COSMOS 2251 DEB
1 38205U 93036BSV 13292.95005968  .00020221  00000-0  26933-2 0  1352
2 38205 074.0141 014.0964 0193462 289.4238 185.5507 14.67386005215203
0 COSMOS 2251 DEB
1 38205U 93036BSV 13294.92731749  .00023507  00000-0  31222-2 0  1362
2 38205 074.0150 010.2720 0193622 285.1504 190.8072 14.67450961215498
